GLOBALSTAR M067 [+]     
1 32263U 07048A   23331.12308932 -.00000082  00000+0  11315-3 0  9999
2 32263  51.9728 258.0787 0000402 135.1005 329.9019 12.40634636739218
GLOBALSTAR M070 [+]     
1 32264U 07048B   23330.45542626 -.00000096  00000+0  43368-4 0  9994
2 32264  51.9761  61.0332 0000265 142.7009 298.1257 12.62282155741841
GLOBALSTAR M066 [+]     
1 32265U 07048C   23331.21134347 -.00000069  00000+0  19276-3 0  9997
2 32265  51.9680 280.7783 0001229  58.4150  50.7971 12.62276814745140
GLOBALSTAR M068 [-]     
1 32266U 07048D   23330.93316229 -.00000030  00000+0  40920-3 0  9995
2 32266  51.9880 234.4076 0001173  21.6800  58.7777 12.62772390745766
GLOBALSTAR M079 [+]     
1 37188U 10054A   23331.43107600 -.00000112  00000+0 -47989-4 0  9996
2 37188  52.0043  68.1245 0000866 123.6370 313.2408 12.62269999605435
GLOBALSTAR M074 [+]     
1 37189U 10054B   23330.68103834 -.00000091  00000+0  71711-4 0  9993
2 37189  52.0022  69.8175 0000671 122.2856  25.3115 12.62272152605263
GLOBALSTAR M076 [+]     
1 37190U 10054C   23331.48490515 -.00000110  00000+0 -34078-4 0  9997
2 37190  52.0038  67.4920 0001033 151.0600 289.7748 12.62263830605445
GLOBALSTAR M077 [+]     
1 37191U 10054D   23331.47696946 -.00000073  00000+0  17137-3 0  9996
2 37191  52.0100  24.2117 0000367 125.7868 338.3418 12.62266905606192
